NORAD_CAT_ID,OBJECT_NAME,OBJECT_TYPE,EPOCH,MEAN_MOTION,ECCENTRICITY,INCLINATION,RA_OF_ASC_NODE,ARG_OF_PERICENTER,MEAN_ANOMALY,BSTAR,MEAN_MOTION_DOT,MEAN_MOTION_DDOT,TLE_LINE0,TLE_LINE1,TLE_LINE2,SEMIMAJOR_AXIS,PERIOD,APOGEE,PERIGEE,DECAYED
49457.0,STARLINK-3132,PAYLOAD,2022-11-28 00:53:28,15.08839197,0.0002544,53.2156,195.6072,41.1607,318.9577,-2.8945e-05,-7.49e-06,0.0,0 STARLINK-3132,1 49457U 21104BB  22332.03713786 -.00000749  00000-0 -28945-4 0  9998,2 49457  53.2156 195.6072 0002544  41.1607 318.9577 15.08839197 57976,6917.8830000000025,95.438,541.508,537.988,0.0
49457.0,STARLINK-3132,PAYLOAD,2022-11-29 00:44:16,15.08827906,0.0002517,53.2156,191.1461,43.5618,316.5572,-4.8812e-05,-1.065e-05,0.0,0 STARLINK-3132,1 49457U 21104BB  22333.03074546 -.00001065  00000-0 -48812-4 0  9990,2 49457  53.2156 191.1461 0002517  43.5618 316.5572 15.08827906 59197,6917.917,95.438,541.524,538.0409999999998,0.0
49457.0,STARLINK-3132,PAYLOAD,2022-11-30 06:56:36,15.0883503,0.00025,53.2155,185.4962,42.0541,318.0643,5.2324e-05,5.44e-06,0.0,0 STARLINK-3132,1 49457U 21104BB  22334.28930616  .00000544  00000-0  52324-4 0  9999,2 49457  53.2155 185.4962 0002500  42.0541 318.0643 15.08835030 59383,6917.896,95.438,541.49,538.031,0.0
49457.0,STARLINK-3132,PAYLOAD,2022-11-30 14:53:31,15.08831584,0.0002516,53.2155,184.0091,42.7731,317.3456,0.00013488,1.858e-05,0.0,0 STARLINK-3132,1 49457U 21104BB  22334.62050679  .00001858  00000-0  13488-3 0  9995,2 49457  53.2155 184.0091 0002516  42.7731 317.3456 15.08831584 58367,6917.906,95.438,541.512,538.031,0.0
49457.0,STARLINK-3132,PAYLOAD,2022-12-01 13:08:55,15.08836479,0.0002628999999999,53.2146,179.8467,47.4848,312.6366,0.00012308,1.671e-05,0.0,0 STARLINK-3132,1 49457U 21104BB  22335.54786843  .00001671  00000-0  12308-3 0  9999,2 49457  53.2146 179.8467 0002629  47.4848 312.6366 15.08836479 58504,6917.891,95.438,541.575,537.937,0.0
49457.0,STARLINK-3132,PAYLOAD,2022-12-01 14:44:19,15.08836425,0.0002364,53.2161,179.5482,73.4246,286.7006,5.0555e-05,5.16e-06,0.0,0 STARLINK-3132,1 49457U 21104BB  22335.61411017  .00000516  00000-0  50555-4 0  9999,2 49457  53.2161 179.5482 0002364  73.4246 286.7006 15.08836425 59584,6917.891,95.438,541.3919999999998,538.121,0.0
49457.0,STARLINK-3132,PAYLOAD,2022-12-02 12:59:43,15.08838071,0.0002539,53.215,175.3853,45.6319,314.4881,4.6184e-05,4.47e-06,0.0,0 STARLINK-3132,1 49457U 21104BB  22336.54147208  .00000447  00000-0  46184-4 0  9996,2 49457  53.2150 175.3853 0002539  45.6319 314.4881 15.08838071 58650,6917.886,95.438,541.508,537.995,0.0
49457.0,STARLINK-3132,PAYLOAD,2022-12-02 14:35:06,15.08839393,0.0002554,53.2155,175.0884,46.3067,313.8136,3.6762e-05,2.97e-06,0.0,0 STARLINK-3132,1 49457U 21104BB  22336.60771169  .00000297  00000-0  36762-4 0  9996,2 49457  53.2155 175.0884 0002554  46.3067 313.8136 15.08839393 58666,6917.882,95.438,541.514,537.98,0.0
49457.0,STARLINK-3132,PAYLOAD,2022-12-03 00:07:24,15.08843175,0.0002579,53.2151,173.3037,46.1386,313.9819,5.0863e-05,5.21e-06,0.0,0 STARLINK-3132,1 49457U 21104BB  22337.00514886  .00000521  00000-0  50863-4 0  9990,2 49457  53.2151 173.3037 0002579  46.1386 313.9819 15.08843175 59799,6917.871,95.437,541.52,537.952,0.0
49457.0,STARLINK-3132,PAYLOAD,2022-12-03 06:28:57,15.08845061,0.000259,53.2151,172.1143,46.5907,313.5301,5.363e-05,5.65e-06,0.0,0 STARLINK-3132,1 49457U 21104BB  22337.27010748  .00000565  00000-0  53630-4 0  9990,2 49457  53.2151 172.1143 0002590  46.5907 313.5301 15.08845061 58764,6917.865,95.437,541.5219999999998,537.938,0.0
49457.0,STARLINK-3132,PAYLOAD,2022-12-03 20:47:25,15.08843468,0.0002613,53.2152,169.4379,47.4834,312.6378,0.00014305,1.989e-05,0.0,0 STARLINK-3132,1 49457U 21104BB  22337.86626593  .00001989  00000-0  14305-3 0  9992,2 49457  53.2152 169.4379 0002613  47.4834 312.6378 15.08843468 58853,6917.87,95.437,541.5419999999998,537.927,0.0
49457.0,STARLINK-3132,PAYLOAD,2022-12-04 06:19:43,15.08847108,0.0002636,53.2152,167.6537,48.1514,311.9703,0.00015515,2.182e-05,0.0,0 STARLINK-3132,1 49457U 21104BB  22338.26370315  .00002182  00000-0  15515-3 0  9995,2 49457  53.2152 167.6537 0002636  48.1514 311.9703 15.08847108 59981,6917.859,95.437,541.547,537.9,0.0
49457.0,STARLINK-3132,PAYLOAD,2022-12-04 19:02:49,15.08837233,0.0002699,53.2146,165.2745,51.3773,308.7461,2.627e-05,1.3e-06,0.0,0 STARLINK-3132,1 49457U 21104BB  22338.79363256  .00000130  00000-0  26270-4 0  9991,2 49457  53.2146 165.2745 0002699  51.3773 308.7461 15.08837233 60065,6917.889,95.438,541.621,537.887,0.0
49457.0,STARLINK-3132,PAYLOAD,2022-12-05 06:10:31,15.08838001,0.0002661,53.2154,163.1934,50.6798,309.4429,2.781e-05,1.54e-06,0.0,0 STARLINK-3132,1 49457U 21104BB  22339.25731276  .00000154  00000-0  27810-4 0  9991,2 49457  53.2154 163.1934 0002661  50.6798 309.4429 15.08838001 59063,6917.886,95.438,541.592,537.911,0.0
49457.0,STARLINK-3132,PAYLOAD,2022-12-05 18:53:36,15.08842373,0.0002682,53.2155,160.8144,51.2028,308.9203,3.8952e-05,3.32e-06,0.0,0 STARLINK-3132,1 49457U 21104BB  22339.78722911  .00000332  00000-0  38952-4 0  9992,2 49457  53.2155 160.8144 0002682  51.2028 308.9203 15.08842373 59147,6917.873000000001,95.437,541.594,537.883,0.0
49457.0,STARLINK-3132,PAYLOAD,2022-12-05 22:04:22,15.08842768,0.0002673,53.2156,160.2196,51.7245,308.3988,1.654e-05,-2.5e-07,0.0,0 STARLINK-3132,1 49457U 21104BB  22339.91970905 -.00000025  00000-0  16540-4 0  9994,2 49457  53.2156 160.2196 0002673  51.7245 308.3988 15.08842768 60239,6917.871999999999,95.437,541.586,537.888,0.0
49457.0,STARLINK-3132,PAYLOAD,2022-12-06 12:22:50,15.08846825,0.0002674,53.2154,157.5433,52.3532,307.7702,4.2038e-05,3.81e-06,0.0,0 STARLINK-3132,1 49457U 21104BB  22340.51586493  .00000381  00000-0  42038-4 0  9992,2 49457  53.2154 157.5433 0002674  52.3532 307.7702 15.08846825 59252,6917.86,95.437,541.5740000000002,537.875,0.0
49457.0,STARLINK-3132,PAYLOAD,2022-12-06 18:44:23,15.08838652,0.0002639,53.2154,156.3528,52.0039,308.1191,9.7378e-05,1.262e-05,0.0,0 STARLINK-3132,1 49457U 21104BB  22340.78082896  .00001262  00000-0  97378-4 0  9995,2 49457  53.2154 156.3528 0002639  52.0039 308.1191 15.08838652 59294,6917.885,95.438,541.575,537.924,0.0
49457.0,STARLINK-3132,PAYLOAD,2022-12-07 10:38:15,15.08831372,0.0002653,53.2153,153.3801,52.2792,307.844,1.27e-05,-8.6e-07,0.0,0 STARLINK-3132,1 49457U 21104BB  22341.44323964 -.00000086  00000-0  12700-4 0  9993,2 49457  53.2153 153.3801 0002653  52.2792 307.8440 15.08831372 60464,6917.906999999997,95.438,541.607,537.936,0.0
49457.0,STARLINK-3132,PAYLOAD,2022-12-07 18:35:11,15.08832896,0.0002673,53.2153,151.8936,53.0969,307.0268,1.7808e-05,-5e-08,0.0,0 STARLINK-3132,1 49457U 21104BB  22341.77444028 -.00000005  00000-0  17808-4 0  9999,2 49457  53.2153 151.8936 0002673  53.0969 307.0268 15.08832896 59441,6917.901999999999,95.438,541.616,537.918,0.0
49457.0,STARLINK-3132,PAYLOAD,2022-12-08 12:04:25,15.08843546,0.0002626,53.2162,148.6216,56.5755,303.5488,6.1238e-05,6.86e-06,0.0,0 STARLINK-3132,1 49457U 21104BB  22342.50307354  .00000686  00000-0  61238-4 0  9991,2 49457  53.2162 148.6216 0002626  56.5755 303.5488 15.08843546 59556,6917.87,95.437,541.5509999999998,537.918,0.0
49457.0,STARLINK-3132,PAYLOAD,2022-12-08 18:25:58,15.08844273,0.0002847,53.2169,147.4359,64.369,295.7596,7.8497e-05,9.61e-06,0.0,0 STARLINK-3132,1 49457U 21104BB  22342.76803287  .00000961  00000-0  78497-4 0  9996,2 49457  53.2169 147.4359 0002847  64.3690 295.7596 15.08844273 59592,6917.8669999999975,95.437,541.702,537.763,0.0
49457.0,STARLINK-3132,PAYLOAD,2022-12-09 10:19:45,15.08898939,0.0002256,53.2168,144.4617,26.6138,333.497,0.00035367,5.354e-05,0.0,0 STARLINK-3132,1 49457U 21104BB  22343.43039248  .00005354  00000-0  35367-3 0  9998,2 49457  53.2168 144.4617 0002256  26.6138 333.4970 15.08898939 59692,6917.7,95.434,541.126,538.005,0.0
49457.0,STARLINK-3132,PAYLOAD,2022-12-09 19:52:02,15.08922764,0.0001962,53.2168,142.6773,45.7224,314.3929,0.0005851,9.057e-05,0.0,0 STARLINK-3132,1 49457U 21104BB  22343.82780853  .00009057  00000-0  58510-3 0  9995,2 49457  53.2168 142.6773 0001962  45.7224 314.3929 15.08922764 60829,6917.627,95.432,540.85,538.135,0.0
49457.0,STARLINK-3132,PAYLOAD,2022-12-10 02:13:42,15.08825496,0.0002853999999999,53.2167,141.4883,47.7846,312.3388,4.7133e-06,-2.14e-06,0.0,0 STARLINK-3132,1 49457U 21104BB  22344.09284783 -.00000214  00000-0  47133-5 0  9994,2 49457  53.2167 141.4883 0002854  47.7846 312.3388 15.08825496 60865,6917.925,95.438,541.764,537.815,0.0
49457.0,STARLINK-3132,PAYLOAD,2022-12-10 18:07:32,15.08842738,0.000275,53.216,138.5109,48.8847,311.2382,2.9403000000000013e-05,1.79e-06,0.0,0 STARLINK-3132,1 49457U 21104BB  22344.75523361  .00000179  00000-0  29403-4 0  9993,2 49457  53.2160 138.5109 0002750  48.8847 311.2382 15.08842738 60965,6917.871999999999,95.437,541.639,537.835,0.0
49457.0,STARLINK-3132,PAYLOAD,2022-12-11 10:01:23,15.08840165,0.0002488,53.216,135.5366,52.0263,308.0953,7.4937e-05,9.04e-06,0.0,0 STARLINK-3132,1 49457U 21104BB  22345.41763312  .00000904  00000-0  74937-4 0  9997,2 49457  53.2160 135.5366 0002488  52.0263 308.0953 15.08840165 59995,6917.88,95.438,541.466,538.024,0.0
49457.0,STARLINK-3132,PAYLOAD,2022-12-11 19:33:41,15.08847416,0.0002692,53.2147,133.7536,51.6086,308.5148,0.00018985,2.735e-05,0.0,0 STARLINK-3132,1 49457U 21104BB  22345.81506797  .00002735  00000-0  18985-3 0  9997,2 49457  53.2147 133.7536 0002692  51.6086 308.5148 15.08847416 60050,6917.858,95.437,541.585,537.86,0.0
49457.0,STARLINK-3132,PAYLOAD,2022-12-12 19:24:29,15.08841357,0.0002839,53.2149,129.2935,52.8286,307.2965,0.00011933,1.611e-05,0.0,0 STARLINK-3132,1 49457U 21104BB  22346.80866988  .00001611  00000-0  11933-3 0  9996,2 49457  53.2149 129.2935 0002839  52.8286 307.2965 15.08841357 60201,6917.876,95.437,541.705,537.7769999999998,0.0
